[{"OBJECT_NAME":"STARLINK-1557","OBJECT_ID":"2020-055H","EPOCH":"2026-03-10T00:00:02.999808","MEAN_MOTION":15.2035016,"ECCENTRICITY":0.0001718,"INCLINATION":53.1122,"RA_OF_ASC_NODE":124.7429,"ARG_OF_PERICENTER":94.4179,"MEAN_ANOMALY":143.9555,"EPHEMERIS_TYPE":0,"CLASSIFICATION_TYPE":"U","NORAD_CAT_ID":46034,"ELEMENT_SET_NO":999,"REV_AT_EPOCH":578,"BSTAR":0.0055116646,"MEAN_MOTION_DOT":0.00123185,"MEAN_MOTION_DDOT":0},{"OBJECT_NAME":"COSMOS 374 DEB","OBJECT_ID":"1970-089CW","EPOCH":"2026-03-09T03:15:05.416704","MEAN_MOTION":14.81622526,"ECCENTRICITY":0.02351408,"INCLINATION":62.872,"RA_OF_ASC_NODE":339.5893,"ARG_OF_PERICENTER":12.2958,"MEAN_ANOMALY":348.3731,"EPHEMERIS_TYPE":0,"CLASSIFICATION_TYPE":"U","NORAD_CAT_ID":14122,"ELEMENT_SET_NO":999,"REV_AT_EPOCH":22578,"BSTAR":0.0042555676,"MEAN_MOTION_DOT":0.00054686,"MEAN_MOTION_DDOT":0}]
